NORAD_CAT_ID,OBJECT_NAME,OBJECT_TYPE,EPOCH,MEAN_MOTION,ECCENTRICITY,INCLINATION,RA_OF_ASC_NODE,ARG_OF_PERICENTER,MEAN_ANOMALY,BSTAR,MEAN_MOTION_DOT,MEAN_MOTION_DDOT,TLE_LINE0,TLE_LINE1,TLE_LINE2,SEMIMAJOR_AXIS,PERIOD,APOGEE,PERIGEE,DECAYED
50206.0,STARLINK-3258,PAYLOAD,2022-07-25 20:27:45,15.08840499,0.0001536,53.2199,57.5719,55.9921,304.1217,9.4204e-05,1.212e-05,0.0,0 STARLINK-3258,1 50206U 21125BC  22206.85260780  .00001212  00000-0  94204-4 0  9991,2 50206  53.2199  57.5719 0001536  55.9921 304.1217 15.08840499 34951,6917.879,95.438,540.806,538.681,0.0
50206.0,STARLINK-3258,PAYLOAD,2022-07-26 07:35:26,15.08843356,0.0001571999999999,53.2197,55.4906,53.9515,306.1622,0.00017251,2.459e-05,0.0,0 STARLINK-3258,1 50206U 21125BC  22207.31628401  .00002459  00000-0  17251-3 0  9991,2 50206  53.2197  55.4906 0001572  53.9515 306.1622 15.08843356 35027,6917.87,95.437,540.823,538.648,0.0
50206.0,STARLINK-3258,PAYLOAD,2022-07-26 17:07:45,15.088459599999998,0.0001576999999999,53.2199,53.7065,54.0213,306.0926,0.00018109,2.596e-05,0.0,0 STARLINK-3258,1 50206U 21125BC  22207.71372146  .00002596  00000-0  18109-3 0  9992,2 50206  53.2199  53.7065 0001577  54.0213 306.0926 15.08845960 35083,6917.861999999999,95.437,540.818,538.636,0.0
50206.0,STARLINK-3258,PAYLOAD,2022-07-26 20:18:32,15.08843472,0.0001546,53.2202,53.1118,51.755,308.3581,0.00010705,1.416e-05,0.0,0 STARLINK-3258,1 50206U 21125BC  22207.84620497  .00001416  00000-0  10705-3 0  9995,2 50206  53.2202  53.1118 0001546  51.7550 308.3581 15.08843472 35106,6917.87,95.437,540.804,538.665,0.0
50206.0,STARLINK-3258,PAYLOAD,2022-07-26 23:29:18,15.08842971,0.0001579,53.2201,52.5172,53.0264,307.0873,0.00010626,1.404e-05,0.0,0 STARLINK-3258,1 50206U 21125BC  22207.97868524  .00001404  00000-0  10626-3 0  9993,2 50206  53.2201  52.5172 0001579  53.0264 307.0873 15.08842971 35126,6917.871,95.437,540.8290000000002,538.644,0.0
50206.0,STARLINK-3258,PAYLOAD,2022-07-27 20:09:19,15.08843829,0.0001594,53.2194,48.6506,54.1289,305.9851,4.2863e-05,3.94e-06,0.0,0 STARLINK-3258,1 50206U 21125BC  22208.83980576  .00000394  00000-0  42863-4 0  9997,2 50206  53.2194  48.6506 0001594  54.1289 305.9851 15.08843829 35250,6917.869000000002,95.437,540.836,538.631,0.0
50206.0,STARLINK-3258,PAYLOAD,2022-07-27 23:20:05,15.08841761,0.0001616,53.2205,48.0559,59.4363,300.6789,7.8428e-05,9.6e-06,0.0,0 STARLINK-3258,1 50206U 21125BC  22208.97228549  .00000960  00000-0  78428-4 0  9992,2 50206  53.2205  48.0559 0001616  59.4363 300.6789 15.08841761 35278,6917.875,95.437,540.8580000000002,538.622,0.0
50206.0,STARLINK-3258,PAYLOAD,2022-07-28 18:24:48,15.08636957,6.1e-05,53.2202,44.4886,111.715,248.3907,0.0027072,0.00042819,0.0,0 STARLINK-3258,1 50206U 21125BC  22209.76723128  .00042819  00000-0  27072-2 0  9999,2 50206  53.2202  44.4886 0000610 111.7150 248.3907 15.08636957 35399,6918.501,95.45,540.788,539.944,0.0
50206.0,STARLINK-3258,PAYLOAD,2022-07-28 20:00:06,15.0883086,0.0001761,53.2207,44.1912,60.0896,300.0271,1.8138e-05,1e-08,0.0,0 STARLINK-3258,1 50206U 21125BC  22209.83341239  .00000001  00000-0  18138-4 0  9998,2 50206  53.2207  44.1912 0001761  60.0896 300.0271 15.08830860 35403,6917.908,95.438,540.992,538.555,0.0
50206.0,STARLINK-3258,PAYLOAD,2022-07-29 11:53:58,15.08836841,0.0001786,53.2208,41.2172,58.6441,301.4726,3.1294e-05,2.1e-06,0.0,0 STARLINK-3258,1 50206U 21125BC  22210.49581020  .00000210  00000-0  31294-4 0  9996,2 50206  53.2208  41.2172 0001786  58.6441 301.4726 15.08836841 35502,6917.89,95.438,540.991,538.52,0.0
50206.0,STARLINK-3258,PAYLOAD,2022-07-29 19:50:53,15.08839753,0.0001747,53.2203,39.7309,58.2444,301.8718,-2.8395e-06,-3.33e-06,0.0,0 STARLINK-3258,1 50206U 21125BC  22210.82700968 -.00000333  00000-0 -28395-5 0  9994,2 50206  53.2203  39.7309 0001747  58.2444 301.8718 15.08839753 35552,6917.880999999999,95.438,540.955,538.538,0.0
50206.0,STARLINK-3258,PAYLOAD,2022-07-30 05:23:12,15.08834385,0.0001727,53.2201,37.9471,57.4616,302.6543,-2.4719e-05,-6.81e-06,0.0,0 STARLINK-3258,1 50206U 21125BC  22211.22445453 -.00000681  00000-0 -24719-4 0  9995,2 50206  53.2201  37.9471 0001727  57.4616 302.6543 15.08834385 35618,6917.898,95.438,540.957,538.568,0.0
50206.0,STARLINK-3258,PAYLOAD,2022-07-30 14:55:31,15.08834681,0.0001633,53.2198,36.1629,57.9593,302.1558,3.6814e-05,2.98e-06,0.0,0 STARLINK-3258,1 50206U 21125BC  22211.62189356  .00000298  00000-0  36814-4 0  9997,2 50206  53.2198  36.1629 0001633  57.9593 302.1558 15.08834681 35670,6917.897,95.438,540.891,538.632,0.0
50206.0,STARLINK-3258,PAYLOAD,2022-07-31 11:35:32,15.08840329,0.0001649,53.2201,32.2974,59.45399999999999,300.6614,6.3415e-05,7.21e-06,0.0,0 STARLINK-3258,1 50206U 21125BC  22212.48301042  .00000721  00000-0  63415-4 0  9998,2 50206  53.2201  32.2974 0001649  59.4540 300.6614 15.08840329 35808,6917.879,95.438,540.885,538.604,0.0
50206.0,STARLINK-3258,PAYLOAD,2022-08-01 05:04:46,15.08844478,0.0001663,53.2204,29.0267,62.1728,297.9433,0.00011805,1.591e-05,0.0,0 STARLINK-3258,1 50206U 21125BC  22213.21164486  .00001591  00000-0  11805-3 0  9990,2 50206  53.2204  29.0267 0001663  62.1728 297.9433 15.08844478 35913,6917.8669999999975,95.437,540.882,538.581,0.0
50206.0,STARLINK-3258,PAYLOAD,2022-08-01 17:47:51,15.08839079,0.0001719,53.2205,26.6479,62.2038,297.9128,3.7768e-05,3.13e-06,0.0,0 STARLINK-3258,1 50206U 21125BC  22213.74157129  .00000313  00000-0  37768-4 0  9992,2 50206  53.2205  26.6479 0001719  62.2038 297.9128 15.08839079 35999,6917.8830000000025,95.438,540.937,538.559,0.0
50206.0,STARLINK-3258,PAYLOAD,2022-08-02 04:55:33,15.08838062,0.0001565999999999,53.2201,24.566,64.8384,295.277,1.247e-06,-2.68e-06,0.0,0 STARLINK-3258,1 50206U 21125BC  22214.20525301 -.00000268  00000-0  12470-5 0  9999,2 50206  53.2201  24.5660 0001566  64.8384 295.2770 15.08838062 36060,6917.886,95.438,540.835,538.668,0.0
50206.0,STARLINK-3258,PAYLOAD,2022-08-02 20:49:24,15.08844011,0.0001545,53.2202,21.5919,66.1252,293.9902,1.6457e-07,-2.85e-06,0.0,0 STARLINK-3258,1 50206U 21125BC  22214.86764837 -.00000285  00000-0  16457-6 0  9999,2 50206  53.2202  21.5919 0001545  66.1252 293.9902 15.08844011 36165,6917.868,95.437,540.802,538.664,0.0
50206.0,STARLINK-3258,PAYLOAD,2022-08-03 04:46:20,15.08847081,0.0001543,53.2202,20.1052,66.0163,294.0991,2.2976e-05,7.8e-07,0.0,0 STARLINK-3258,1 50206U 21125BC  22215.19884466  .00000078  00000-0  22976-4 0  9997,2 50206  53.2202  20.1052 0001543  66.0163 294.0991 15.08847081 36212,6917.859,95.437,540.7909999999998,538.656,0.0
50206.0,STARLINK-3258,PAYLOAD,2022-08-03 11:07:52,15.08848288,0.0001538,53.2202,18.9157,65.5429,294.5723,2.9168000000000013e-05,1.76e-06,0.0,0 STARLINK-3258,1 50206U 21125BC  22215.46380257  .00000176  00000-0  29168-4 0  9995,2 50206  53.2202  18.9157 0001538  65.5429 294.5723 15.08848288 36258,6917.855,95.437,540.784,538.656,0.0
50206.0,STARLINK-3258,PAYLOAD,2022-08-03 20:40:12,15.08835295,0.0001599,53.2201,17.1336,55.7005,304.4139,1.7379e-05,-1.1e-07,0.0,0 STARLINK-3258,1 50206U 21125BC  22215.86125152 -.00000011  00000-0  17379-4 0  9990,2 50206  53.2201  17.1336 0001599  55.7005 304.4139 15.08835295 36318,6917.895,95.438,540.866,538.654,0.0
50206.0,STARLINK-3258,PAYLOAD,2022-08-04 12:34:03,15.08832596,0.0001281999999999,53.2205,14.1597,51.7389,308.3718,-4.2411e-06,-3.55e-06,0.0,0 STARLINK-3258,1 50206U 21125BC  22216.52365444 -.00000355  00000-0 -42411-5 0  9992,2 50206  53.2205  14.1597 0001282  51.7389 308.3718 15.08832596 36416,6917.903,95.438,540.655,538.881,0.0
50206.0,STARLINK-3258,PAYLOAD,2022-08-04 20:30:59,15.08839493,0.000159,53.2204,12.6728,63.0151,297.1003,8.1015e-06,-1.59e-06,0.0,0 STARLINK-3258,1 50206U 21125BC  22216.85485137 -.00000159  00000-0  81015-5 0  9994,2 50206  53.2204  12.6728 0001590  63.0151 297.1003 15.08839493 36469,6917.882,95.438,540.847,538.6469999999998,0.0
50206.0,STARLINK-3258,PAYLOAD,2022-08-05 12:24:50,15.08841466,0.0001807,53.2199,9.7002,61.77,298.3474,-6.0745e-05,-1.255e-05,0.0,0 STARLINK-3258,1 50206U 21125BC  22217.51725321 -.00001255  00000-0 -60745-4 0  9995,2 50206  53.2199   9.7002 0001807  61.7700 298.3474 15.08841466 36569,6917.876,95.437,540.991,538.491,0.0
50206.0,STARLINK-3258,PAYLOAD,2022-08-05 20:21:46,15.08836954,0.0001584,53.2189,8.212,50.5332,309.58,-6.8161e-05,-1.373e-05,0.0,0 STARLINK-3258,1 50206U 21125BC  22217.84845685 -.00001373  00000-0 -68161-4 0  9998,2 50206  53.2189   8.2120 0001584  50.5332 309.5800 15.08836954 36612,6917.89,95.438,540.85,538.659,0.0
50206.0,STARLINK-3258,PAYLOAD,2022-08-06 12:15:38,15.08835203,0.0001621,53.2189,5.239,62.1729,297.9428,2.3085e-05,7.9e-07,0.0,0 STARLINK-3258,1 50206U 21125BC  22218.51085862  .00000079  00000-0  23085-4 0  9992,2 50206  53.2189   5.2390 0001621  62.1729 297.9428 15.08835203 36712,6917.895,95.438,540.881,538.639,0.0
50206.0,STARLINK-3258,PAYLOAD,2022-08-06 20:12:33,15.08844214,0.0001519,53.2184,3.7514,57.5238,302.5901,9.2873e-05,1.191e-05,0.0,0 STARLINK-3258,1 50206U 21125BC  22218.84205143  .00001191  00000-0  92873-4 0  9991,2 50206  53.2184   3.7514 0001519  57.5238 302.5901 15.08844214 36763,6917.868,95.437,540.783,538.682,0.0
50206.0,STARLINK-3258,PAYLOAD,2022-08-07 13:41:48,15.08830639,0.000139,53.2187,0.4805,60.9849,299.1282,4.442300000000001e-05,4.19e-06,0.0,0 STARLINK-3258,1 50206U 21125BC  22219.57070248  .00000419  00000-0  44423-4 0  9998,2 50206  53.2187   0.4805 0001390  60.9849 299.1282 15.08830639 36877,6917.909000000002,95.438,540.736,538.812,0.0
50206.0,STARLINK-3258,PAYLOAD,2022-08-07 20:03:21,15.08835195,0.0001530999999999,53.2193,359.2912,62.8598,297.255,8.0609e-05,9.95e-06,0.0,0 STARLINK-3258,1 50206U 21125BC  22219.83566070  .00000995  00000-0  80609-4 0  9995,2 50206  53.2193 359.2912 0001531  62.8598 297.2550 15.08835195 36911,6917.895,95.438,540.819,538.701,0.0
